{
  "name": "SATGUS",
  "line1": "1 62713U 25009DJ  26163.79768932  .00006565  00000+0  51646-3 0  9990",
  "line2": "2 62713  97.6934 245.2168 0008888 135.0499 225.1446 15.01146263 76905",
  "fetched_at": "2026-06-13T00:52:04.895595+00:00"
}